[{"OBJECT_NAME":"STARLINK-30408","OBJECT_ID":"2023-138S","EPOCH":"2025-10-07T11:53:57.106176","MEAN_MOTION":15.02534636,"ECCENTRICITY":0.00014112,"INCLINATION":43.0039,"RA_OF_ASC_NODE":348.3152,"ARG_OF_PERICENTER":272.5282,"MEAN_ANOMALY":87.5398,"EPHEMERIS_TYPE":0,"CLASSIFICATION_TYPE":"U","NORAD_CAT_ID":57824,"ELEMENT_SET_NO":999,"REV_AT_EPOCH":11566,"BSTAR":7.6109018e-5,"MEAN_MOTION_DOT":8.25e-6,"MEAN_MOTION_DDOT":0},{"OBJECT_NAME":"STARLINK-30377","OBJECT_ID":"2023-138T","EPOCH":"2025-10-07T14:41:25.709568","MEAN_MOTION":15.02536299,"ECCENTRICITY":0.00013563,"INCLINATION":43.0037,"RA_OF_ASC_NODE":347.4714,"ARG_OF_PERICENTER":261.0548,"MEAN_ANOMALY":99.0141,"EPHEMERIS_TYPE":0,"CLASSIFICATION_TYPE":"U","NORAD_CAT_ID":57825,"ELEMENT_SET_NO":999,"REV_AT_EPOCH":11558,"BSTAR":4.5952843e-5,"MEAN_MOTION_DOT":4.17e-6,"MEAN_MOTION_DDOT":0},{"OBJECT_NAME":"STARLINK-30422","OBJECT_ID":"2023-138U","EPOCH":"2025-10-07T13:10:31.833984","MEAN_MOTION":15.02429127,"ECCENTRICITY":5.093e-5,"INCLINATION":43.004,"RA_OF_ASC_NODE":347.8549,"ARG_OF_PERICENTER":165.8772,"MEAN_ANOMALY":194.2085,"EPHEMERIS_TYPE":0,"CLASSIFICATION_TYPE":"U","NORAD_CAT_ID":57826,"ELEMENT_SET_NO":999,"REV_AT_EPOCH":11567,"BSTAR":0.0019844539,"MEAN_MOTION_DOT":0.00026629,"MEAN_MOTION_DDOT":0},{"OBJECT_NAME":"STARLINK-30402","OBJECT_ID":"2023-138V","EPOCH":"2025-10-07T11:41:09.415392","MEAN_MOTION":15.02540925,"ECCENTRICITY":0.00013681,"INCLINATION":43.0041,"RA_OF_ASC_NODE":348.25,"ARG_OF_PERICENTER":271.2287,"MEAN_ANOMALY":88.8398,"EPHEMERIS_TYPE":0,"CLASSIFICATION_TYPE":"U","NORAD_CAT_ID":57827,"ELEMENT_SET_NO":999,"REV_AT_EPOCH":11566,"BSTAR":2.8784391e-5,"MEAN_MOTION_DOT":1.85e-6,"MEAN_MOTION_DDOT":0},{"OBJECT_NAME":"STARLINK-30411","OBJECT_ID":"2023-138W","EPOCH":"2025-10-07T11:44:21.319296","MEAN_MOTION":15.02539375,"ECCENTRICITY":0.00013708,"INCLINATION":43.005,"RA_OF_ASC_NODE":348.2481,"ARG_OF_PERICENTER":268.318,"MEAN_ANOMALY":91.7506,"EPHEMERIS_TYPE":0,"CLASSIFICATION_TYPE":"U","NORAD_CAT_ID":57828,"ELEMENT_SET_NO":999,"REV_AT_EPOCH":11560,"BSTAR":0.00010408385,"MEAN_MOTION_DOT":1.203e-5,"MEAN_MOTION_DDOT":0},{"OBJECT_NAME":"STARLINK-30418","OBJECT_ID":"2023-138X","EPOCH":"2025-10-07T11:25:10.877376","MEAN_MOTION":15.02535375,"ECCENTRICITY":0.00015199,"INCLINATION":43.0048,"RA_OF_ASC_NODE":348.168,"ARG_OF_PERICENTER":271.3264,"MEAN_ANOMALY":88.7405,"EPHEMERIS_TYPE":0,"CLASSIFICATION_TYPE":"U","NORAD_CAT_ID":57829,"ELEMENT_SET_NO":999,"REV_AT_EPOCH":11550,"BSTAR":2.6686932e-5,"MEAN_MOTION_DOT":1.57e-6,"MEAN_MOTION_DDOT":0},{"OBJECT_NAME":"STARLINK-30285","OBJECT_ID":"2023-141A","EPOCH":"2025-10-07T08:52:24.615840","MEAN_MOTION":15.3019544,"ECCENTRICITY":0.00011947,"INCLINATION":53.1585,"RA_OF_ASC_NODE":276.3004,"ARG_OF_PERICENTER":95.7555,"MEAN_ANOMALY":264.3582,"EPHEMERIS_TYPE":0,"CLASSIFICATION_TYPE":"U","NORAD_CAT_ID":57840,"ELEMENT_SET_NO":999,"REV_AT_EPOCH":11685,"BSTAR":4.7292605e-5,"MEAN_MOTION_DOT":1.042e-5,"MEAN_MOTION_DDOT":0},{"OBJECT_NAME":"STARLINK-30410","OBJECT_ID":"2023-141B","EPOCH":"2025-10-07T07:36:33.266016","MEAN_MOTION":15.30188586,"ECCENTRICITY":0.00013378,"INCLINATION":53.1595,"RA_OF_ASC_NODE":276.4954,"ARG_OF_PERICENTER":94.3731,"MEAN_ANOMALY":265.7422,"EPHEMERIS_TYPE":0,"CLASSIFICATION_TYPE":"U","NORAD_CAT_ID":57841,"ELEMENT_SET_NO":999,"REV_AT_EPOCH":11684,"BSTAR":6.4820134e-5,"MEAN_MOTION_DOT":1.56e-5,"MEAN_MOTION_DDOT":0},{"OBJECT_NAME":"STARLINK-30435","OBJECT_ID":"2023-141C","EPOCH":"2025-10-07T06:07:04.126368","MEAN_MOTION":15.30187136,"ECCENTRICITY":0.00013749,"INCLINATION":53.1599,"RA_OF_ASC_NODE":276.8474,"ARG_OF_PERICENTER":88.7119,"MEAN_ANOMALY":271.4039,"EPHEMERIS_TYPE":0,"CLASSIFICATION_TYPE":"U","NORAD_CAT_ID":57842,"ELEMENT_SET_NO":999,"REV_AT_EPOCH":11683,"BSTAR":3.1026461e-5,"MEAN_MOTION_DOT":5.59e-6,"MEAN_MOTION_DDOT":0},{"OBJECT_NAME":"STARLINK-30423","OBJECT_ID":"2023-141D","EPOCH":"2025-10-07T06:13:08.076864","MEAN_MOTION":15.30192942,"ECCENTRICITY":0.00014041,"INCLINATION":53.1606,"RA_OF_ASC_NODE":276.8292,"ARG_OF_PERICENTER":76.3528,"MEAN_ANOMALY":283.7629,"EPHEMERIS_TYPE":0,"CLASSIFICATION_TYPE":"U","NORAD_CAT_ID":57843,"ELEMENT_SET_NO":999,"REV_AT_EPOCH":11683,"BSTAR":8.3991672e-5,"MEAN_MOTION_DOT":2.129e-5,"MEAN_MOTION_DDOT":0},{"OBJECT_NAME":"STARLINK-30292","OBJECT_ID":"2023-141E","EPOCH":"2025-10-07T06:23:39.424128","MEAN_MOTION":15.30194702,"ECCENTRICITY":0.00014125,"INCLINATION":53.1604,"RA_OF_ASC_NODE":276.3803,"ARG_OF_PERICENTER":79.9077,"MEAN_ANOMALY":280.2083,"EPHEMERIS_TYPE":0,"CLASSIFICATION_TYPE":"U","NORAD_CAT_ID":57844,"ELEMENT_SET_NO":999,"REV_AT_EPOCH":11684,"BSTAR":4.2508653e-5,"MEAN_MOTION_DOT":9.0e-6,"MEAN_MOTION_DDOT":0},{"OBJECT_NAME":"STARLINK-30416","OBJECT_ID":"2023-141H","EPOCH":"2025-10-07T09:01:31.613376","MEAN_MOTION":15.30190319,"ECCENTRICITY":0.00013373,"INCLINATION":53.1601,"RA_OF_ASC_NODE":276.3069,"ARG_OF_PERICENTER":91.0056,"MEAN_ANOMALY":269.1098,"EPHEMERIS_TYPE":0,"CLASSIFICATION_TYPE":"U","NORAD_CAT_ID":57847,"ELEMENT_SET_NO":999,"REV_AT_EPOCH":11685,"BSTAR":2.8138507e-5,"MEAN_MOTION_DOT":4.74e-6,"MEAN_MOTION_DDOT":0},{"OBJECT_NAME":"STARLINK-30426","OBJECT_ID":"2023-141J","EPOCH":"2025-10-07T06:17:40.966944","MEAN_MOTION":15.30196143,"ECCENTRICITY":0.00014203,"INCLINATION":53.1609,"RA_OF_ASC_NODE":276.8151,"ARG_OF_PERICENTER":86.433,"MEAN_ANOMALY":273.6833,"EPHEMERIS_TYPE":0,"CLASSIFICATION_TYPE":"U","NORAD_CAT_ID":57848,"ELEMENT_SET_NO":999,"REV_AT_EPOCH":11683,"BSTAR":3.5903184e-5,"MEAN_MOTION_DOT":7.04e-6,"MEAN_MOTION_DDOT":0},{"OBJECT_NAME":"STARLINK-30430","OBJECT_ID":"2023-141K","EPOCH":"2025-10-07T08:56:58.369920","MEAN_MOTION":15.30198893,"ECCENTRICITY":0.00016245,"INCLINATION":53.1587,"RA_OF_ASC_NODE":276.3296,"ARG_OF_PERICENTER":84.9749,"MEAN_ANOMALY":275.1438,"EPHEMERIS_TYPE":0,"CLASSIFICATION_TYPE":"U","NORAD_CAT_ID":57849,"ELEMENT_SET_NO":999,"REV_AT_EPOCH":11685,"BSTAR":9.939976e-5,"MEAN_MOTION_DOT":2.586e-5,"MEAN_MOTION_DDOT":0},{"OBJECT_NAME":"STARLINK-30425","OBJECT_ID":"2023-141L","EPOCH":"2025-10-07T06:22:14.390976","MEAN_MOTION":15.3019645,"ECCENTRICITY":0.00013551,"INCLINATION":53.1601,"RA_OF_ASC_NODE":276.8394,"ARG_OF_PERICENTER":93.382,"MEAN_ANOMALY":266.7336,"EPHEMERIS_TYPE":0,"CLASSIFICATION_TYPE":"U","NORAD_CAT_ID":57850,"ELEMENT_SET_NO":999,"REV_AT_EPOCH":11683,"BSTAR":8.8417543e-5,"MEAN_MOTION_DOT":2.26e-5,"MEAN_MOTION_DDOT":0},{"OBJECT_NAME":"STARLINK-30405","OBJECT_ID":"2023-141M","EPOCH":"2025-10-07T07:32:01.722912","MEAN_MOTION":15.3019126,"ECCENTRICITY":0.00014841,"INCLINATION":53.1601,"RA_OF_ASC_NODE":276.6181,"ARG_OF_PERICENTER":84.4001,"MEAN_ANOMALY":275.7169,"EPHEMERIS_TYPE":0,"CLASSIFICATION_TYPE":"U","NORAD_CAT_ID":57851,"ELEMENT_SET_NO":999,"REV_AT_EPOCH":11684,"BSTAR":5.5694825e-5,"MEAN_MOTION_DOT":1.29e-5,"MEAN_MOTION_DDOT":0}]
