57824,STARLINK-30408,2023,95.84,-1.0,+,43.0,Active,0,LEO,USA,USA,Unknown,Unknown,Unknown,1 57824U 23138S   25280.49579984  .00000825  00000+0  76109-4 0  9996,2 57824  43.0039 348.3152 0001411 272.5282  87.5398 15.02534636115662,15.02534636,0.0001411,LEO
57825,STARLINK-30377,2023,95.84,-1.0,+,43.01,Active,0,LEO,USA,USA,Unknown,Unknown,Unknown,1 57825U 23138T   25280.61210312  .00000417  00000+0  45953-4 0  9998,2 57825  43.0037 347.4714 0001356 261.0548  99.0141 15.02536299115583,15.02536299,0.0001356,LEO
57826,STARLINK-30422,2023,95.84,-1.0,+,43.0,Active,0,LEO,USA,USA,Unknown,Unknown,Unknown,1 57826U 23138U   25280.54897956  .00026629  00000+0  19845-2 0  9998,2 57826  43.0040 347.8549 0000509 165.8772 194.2085 15.02429127115673,15.02429127,5.09e-05,LEO
57827,STARLINK-30402,2023,95.84,-1.0,+,43.01,Active,0,LEO,USA,USA,Unknown,Unknown,Unknown,1 57827U 23138V   25280.48691453  .00000185  00000+0  28784-4 0  9999,2 57827  43.0041 348.2500 0001368 271.2287  88.8398 15.02540925115668,15.02540925,0.0001368,LEO
57828,STARLINK-30411,2023,95.84,-1.0,+,43.01,Active,0,LEO,USA,USA,Unknown,Unknown,Unknown,1 57828U 23138W   25280.48913564  .00001203  00000+0  10408-3 0  9995,2 57828  43.0050 348.2481 0001370 268.3180  91.7506 15.02539375115604,15.02539375,0.000137,LEO
57829,STARLINK-30418,2023,95.84,-1.0,+,43.01,Active,0,LEO,USA,USA,Unknown,Unknown,Unknown,1 57829U 23138X   25280.47582034  .00000157  00000+0  26687-4 0  9993,2 57829  43.0048 348.1680 0001519 271.3264  88.7405 15.02535375115503,15.02535375,0.0001519,LEO
57840,STARLINK-30285,2023,94.11,-1.0,+,53.16,Active,0,LEO,USA,USA,Unknown,Unknown,Unknown,1 57840U 23141A   25280.36972935  .00001042  00000+0  47293-4 0  9991,2 57840  53.1585 276.3004 0001194  95.7555 264.3582 15.30195440116859,15.3019544,0.0001194,LEO
57841,STARLINK-30410,2023,94.11,-1.0,+,53.16,Active,0,LEO,USA,USA,Unknown,Unknown,Unknown,1 57841U 23141B   25280.31705169  .00001560  00000+0  64820-4 0  9990,2 57841  53.1595 276.4954 0001337  94.3731 265.7422 15.30188586116846,15.30188586,0.0001337,LEO
57842,STARLINK-30435,2023,94.11,-1.0,+,53.16,Active,0,LEO,USA,USA,Unknown,Unknown,Unknown,1 57842U 23141C   25280.25490887  .00000559  00000+0  31026-4 0  9991,2 57842  53.1599 276.8474 0001374  88.7119 271.4039 15.30187136116837,15.30187136,0.0001374,LEO
57843,STARLINK-30423,2023,94.11,-1.0,+,53.16,Active,0,LEO,USA,USA,Unknown,Unknown,Unknown,1 57843U 23141D   25280.25912126  .00002129  00000+0  83992-4 0  9991,2 57843  53.1606 276.8292 0001404  76.3528 283.7629 15.30192942116838,15.30192942,0.0001404,LEO
57844,STARLINK-30292,2023,94.11,-1.0,+,53.16,Active,0,LEO,USA,USA,Unknown,Unknown,Unknown,1 57844U 23141E   25280.26642852  .00000900  00000+0  42509-4 0  9993,2 57844  53.1604 276.3803 0001412  79.9077 280.2083 15.30194702116840,15.30194702,0.0001412,LEO
57847,STARLINK-30416,2023,94.11,-1.0,+,53.16,Active,0,LEO,USA,USA,Unknown,Unknown,Unknown,1 57847U 23141H   25280.37606034  .00000474  00000+0  28139-4 0  9999,2 57847  53.1601 276.3069 0001337  91.0056 269.1098 15.30190319116855,15.30190319,0.0001337,LEO
57848,STARLINK-30426,2023,94.11,-1.0,+,53.16,Active,0,LEO,USA,USA,Unknown,Unknown,Unknown,1 57848U 23141J   25280.26227971  .00000704  00000+0  35903-4 0  9990,2 57848  53.1609 276.8151 0001420  86.4330 273.6833 15.30196143116833,15.30196143,0.000142,LEO
57849,STARLINK-30430,2023,94.11,-1.0,+,53.16,Active,0,LEO,USA,USA,Unknown,Unknown,Unknown,1 57849U 23141K   25280.37289780  .00002586  00000+0  99400-4 0  9991,2 57849  53.1587 276.3296 0001624  84.9749 275.1438 15.30198893116851,15.30198893,0.0001624,LEO
57850,STARLINK-30425,2023,94.1,-1.0,+,53.16,Active,0,LEO,USA,USA,Unknown,Unknown,Unknown,1 57850U 23141L   25280.26544434  .00002260  00000+0  88418-4 0  9997,2 57850  53.1601 276.8394 0001355  93.3820 266.7336 15.30196450116837,15.3019645,0.0001355,LEO
57851,STARLINK-30405,2023,94.11,-1.0,+,53.16,Active,0,LEO,USA,USA,Unknown,Unknown,Unknown,1 57851U 23141M   25280.31390883  .00001290  00000+0  55695-4 0  9994,2 57851  53.1601 276.6181 0001484  84.4001 275.7169 15.30191260116844,15.3019126,0.0001484,LEO
